[{"OBJECT_NAME":"ONEWEB-0137","OBJECT_ID":"2020-100AB","EPOCH":"2026-04-24T04:09:32.647392","MEAN_MOTION":13.12442869,"ECCENTRICITY":0.0001621,"INCLINATION":87.9013,"RA_OF_ASC_NODE":1.3874,"ARG_OF_PERICENTER":82.2149,"MEAN_ANOMALY":277.9163,"EPHEMERIS_TYPE":0,"CLASSIFICATION_TYPE":"U","NORAD_CAT_ID":47283,"ELEMENT_SET_NO":999,"REV_AT_EPOCH":25748,"BSTAR":-0.0009514899999999999,"MEAN_MOTION_DOT":-3.3e-06,"MEAN_MOTION_DDOT":0.0},{"OBJECT_NAME":"ONEWEB-0138","OBJECT_ID":"2020-100AC","EPOCH":"2026-04-24T05:27:38.775168","MEAN_MOTION":13.12441617,"ECCENTRICITY":0.0001723,"INCLINATION":87.9008,"RA_OF_ASC_NODE":1.3848,"ARG_OF_PERICENTER":76.7933,"MEAN_ANOMALY":283.3388,"EPHEMERIS_TYPE":0,"CLASSIFICATION_TYPE":"U","NORAD_CAT_ID":47284,"ELEMENT_SET_NO":999,"REV_AT_EPOCH":25757,"BSTAR":0.00024691,"MEAN_MOTION_DOT":1.02e-06,"MEAN_MOTION_DDOT":0.0},{"OBJECT_NAME":"ONEWEB-0139","OBJECT_ID":"2020-100AD","EPOCH":"2026-04-24T04:36:35.926272","MEAN_MOTION":13.12443602,"ECCENTRICITY":0.0001768,"INCLINATION":87.9002,"RA_OF_ASC_NODE":1.38,"ARG_OF_PERICENTER":77.9816,"MEAN_ANOMALY":282.1511,"EPHEMERIS_TYPE":0,"CLASSIFICATION_TYPE":"U","NORAD_CAT_ID":47285,"ELEMENT_SET_NO":999,"REV_AT_EPOCH":25764,"BSTAR":-6.602700000000001e-06,"MEAN_MOTION_DOT":1e-07,"MEAN_MOTION_DDOT":0.0},{"OBJECT_NAME":"ONEWEB-0140","OBJECT_ID":"2020-100AE","EPOCH":"2026-04-24T05:20:18.184416","MEAN_MOTION":13.12442558,"ECCENTRICITY":0.0001968,"INCLINATION":87.9005,"RA_OF_ASC_NODE":1.3632,"ARG_OF_PERICENTER":83.9743,"MEAN_ANOMALY":276.161,"EPHEMERIS_TYPE":0,"CLASSIFICATION_TYPE":"U","NORAD_CAT_ID":47286,"ELEMENT_SET_NO":999,"REV_AT_EPOCH":25761,"BSTAR":0.00075712,"MEAN_MOTION_DOT":2.85e-06,"MEAN_MOTION_DDOT":0.0},{"OBJECT_NAME":"ONEWEB-0141","OBJECT_ID":"2020-100AF","EPOCH":"2026-04-24T04:36:11.431008","MEAN_MOTION":13.12444096,"ECCENTRICITY":0.0001487,"INCLINATION":87.9001,"RA_OF_ASC_NODE":1.3757,"ARG_OF_PERICENTER":87.0081,"MEAN_ANOMALY":273.1218,"EPHEMERIS_TYPE":0,"CLASSIFICATION_TYPE":"U","NORAD_CAT_ID":47287,"ELEMENT_SET_NO":999,"REV_AT_EPOCH":25759,"BSTAR":0.00018071000000000002,"MEAN_MOTION_DOT":7.8e-07,"MEAN_MOTION_DDOT":0.0},{"OBJECT_NAME":"ONEWEB-0142","OBJECT_ID":"2020-100AG","EPOCH":"2026-04-24T04:19:30.178560","MEAN_MOTION":13.12443516,"ECCENTRICITY":0.0001365,"INCLINATION":87.8998,"RA_OF_ASC_NODE":1.4014,"ARG_OF_PERICENTER":74.7781,"MEAN_ANOMALY":285.3498,"EPHEMERIS_TYPE":0,"CLASSIFICATION_TYPE":"U","NORAD_CAT_ID":47288,"ELEMENT_SET_NO":999,"REV_AT_EPOCH":25758,"BSTAR":-0.00089821,"MEAN_MOTION_DOT":-3.1e-06,"MEAN_MOTION_DDOT":0.0},{"OBJECT_NAME":"ONEWEB-0143","OBJECT_ID":"2020-100AH","EPOCH":"2026-04-24T04:33:56.935584","MEAN_MOTION":13.12444267,"ECCENTRICITY":0.0001746,"INCLINATION":87.9001,"RA_OF_ASC_NODE":1.3962,"ARG_OF_PERICENTER":80.0452,"MEAN_ANOMALY":280.0874,"EPHEMERIS_TYPE":0,"CLASSIFICATION_TYPE":"U","NORAD_CAT_ID":47289,"ELEMENT_SET_NO":999,"REV_AT_EPOCH":25756,"BSTAR":-0.00023674000000000001,"MEAN_MOTION_DOT":-7.2e-07,"MEAN_MOTION_DDOT":0.0},{"OBJECT_NAME":"ONEWEB-0144","OBJECT_ID":"2020-100AJ","EPOCH":"2026-04-24T05:42:13.876704","MEAN_MOTION":13.12441644,"ECCENTRICITY":0.0001571,"INCLINATION":87.9005,"RA_OF_ASC_NODE":1.3579,"ARG_OF_PERICENTER":70.0001,"MEAN_ANOMALY":290.1296,"EPHEMERIS_TYPE":0,"CLASSIFICATION_TYPE":"U","NORAD_CAT_ID":47290,"ELEMENT_SET_NO":999,"REV_AT_EPOCH":25749,"BSTAR":-0.00054864,"MEAN_MOTION_DOT":-1.85e-06,"MEAN_MOTION_DDOT":0.0},{"OBJECT_NAME":"ONEWEB-0145","OBJECT_ID":"2020-100AK","EPOCH":"2026-04-24T03:11:00.700800","MEAN_MOTION":13.12443183,"ECCENTRICITY":0.0001695,"INCLINATION":87.8992,"RA_OF_ASC_NODE":1.4132,"ARG_OF_PERICENTER":77.3714,"MEAN_ANOMALY":282.7604,"EPHEMERIS_TYPE":0,"CLASSIFICATION_TYPE":"U","NORAD_CAT_ID":47291,"ELEMENT_SET_NO":999,"REV_AT_EPOCH":25767,"BSTAR":0.0012497,"MEAN_MOTION_DOT":4.62e-06,"MEAN_MOTION_DDOT":0.0},{"OBJECT_NAME":"ONEWEB-0146","OBJECT_ID":"2020-100AL","EPOCH":"2026-04-24T04:55:54.678144","MEAN_MOTION":13.12443374,"ECCENTRICITY":0.0002037,"INCLINATION":87.9003,"RA_OF_ASC_NODE":1.3866,"ARG_OF_PERICENTER":85.2328,"MEAN_ANOMALY":274.9033,"EPHEMERIS_TYPE":0,"CLASSIFICATION_TYPE":"U","NORAD_CAT_ID":47292,"ELEMENT_SET_NO":999,"REV_AT_EPOCH":25759,"BSTAR":0.00095632,"MEAN_MOTION_DOT":3.57e-06,"MEAN_MOTION_DDOT":0.0},{"OBJECT_NAME":"ONEWEB-0147","OBJECT_ID":"2020-100AM","EPOCH":"2026-04-24T04:07:05.901312","MEAN_MOTION":13.12442935,"ECCENTRICITY":0.000186,"INCLINATION":87.9008,"RA_OF_ASC_NODE":1.3728,"ARG_OF_PERICENTER":76.0172,"MEAN_ANOMALY":284.1164,"EPHEMERIS_TYPE":0,"CLASSIFICATION_TYPE":"U","NORAD_CAT_ID":47293,"ELEMENT_SET_NO":999,"REV_AT_EPOCH":25748,"BSTAR":-0.0013114000000000001,"MEAN_MOTION_DOT":-4.59e-06,"MEAN_MOTION_DDOT":0.0},{"OBJECT_NAME":"ONEWEB-0115","OBJECT_ID":"2021-025A","EPOCH":"2026-04-24T02:09:03.599136","MEAN_MOTION":13.13469619,"ECCENTRICITY":0.0001805,"INCLINATION":87.8979,"RA_OF_ASC_NODE":330.997,"ARG_OF_PERICENTER":84.7316,"MEAN_ANOMALY":275.4019,"EPHEMERIS_TYPE":0,"CLASSIFICATION_TYPE":"U","NORAD_CAT_ID":48042,"ELEMENT_SET_NO":999,"REV_AT_EPOCH":24649,"BSTAR":-0.00079616,"MEAN_MOTION_DOT":-2.78e-06,"MEAN_MOTION_DDOT":0.0},{"OBJECT_NAME":"ONEWEB-0152","OBJECT_ID":"2021-025B","EPOCH":"2026-04-24T02:28:33.843072","MEAN_MOTION":13.13470057,"ECCENTRICITY":0.0001855,"INCLINATION":87.8964,"RA_OF_ASC_NODE":330.9933,"ARG_OF_PERICENTER":85.8381,"MEAN_ANOMALY":274.296,"EPHEMERIS_TYPE":0,"CLASSIFICATION_TYPE":"U","NORAD_CAT_ID":48043,"ELEMENT_SET_NO":999,"REV_AT_EPOCH":24645,"BSTAR":-0.0001945,"MEAN_MOTION_DOT":-5.8e-07,"MEAN_MOTION_DDOT":0.0},{"OBJECT_NAME":"ONEWEB-0153","OBJECT_ID":"2021-025C","EPOCH":"2026-04-24T03:46:33.871008","MEAN_MOTION":13.13469804,"ECCENTRICITY":0.0001668,"INCLINATION":87.8971,"RA_OF_ASC_NODE":330.9862,"ARG_OF_PERICENTER":83.9649,"MEAN_ANOMALY":276.167,"EPHEMERIS_TYPE":0,"CLASSIFICATION_TYPE":"U","NORAD_CAT_ID":48044,"ELEMENT_SET_NO":999,"REV_AT_EPOCH":24645,"BSTAR":-0.00073153,"MEAN_MOTION_DOT":-2.54e-06,"MEAN_MOTION_DDOT":0.0},{"OBJECT_NAME":"ONEWEB-0154","OBJECT_ID":"2021-025D","EPOCH":"2026-04-24T03:41:40.259616","MEAN_MOTION":13.13468458,"ECCENTRICITY":0.0001774,"INCLINATION":87.897,"RA_OF_ASC_NODE":330.9848,"ARG_OF_PERICENTER":82.5071,"MEAN_ANOMALY":277.6259,"EPHEMERIS_TYPE":0,"CLASSIFICATION_TYPE":"U","NORAD_CAT_ID":48045,"ELEMENT_SET_NO":999,"REV_AT_EPOCH":24641,"BSTAR":-0.00056558,"MEAN_MOTION_DOT":-1.94e-06,"MEAN_MOTION_DDOT":0.0},{"OBJECT_NAME":"ONEWEB-0116","OBJECT_ID":"2021-025E","EPOCH":"2026-04-24T02:48:04.019616","MEAN_MOTION":13.1347023,"ECCENTRICITY":0.0001861,"INCLINATION":87.8979,"RA_OF_ASC_NODE":330.9846,"ARG_OF_PERICENTER":85.3315,"MEAN_ANOMALY":274.8027,"EPHEMERIS_TYPE":0,"CLASSIFICATION_TYPE":"U","NORAD_CAT_ID":48046,"ELEMENT_SET_NO":999,"REV_AT_EPOCH":24655,"BSTAR":0.0006568,"MEAN_MOTION_DOT":2.53e-06,"MEAN_MOTION_DDOT":0.0}]