ONEWEB-0137             
1 47283U 20100AB  26114.17329453 -.00000330  00000+0 -95149-3 0  9993
2 47283  87.9013   1.3874 0001621  82.2149 277.9163 13.12442869257484
ONEWEB-0138             
1 47284U 20100AC  26114.22753212  .00000102  00000+0  24691-3 0  9993
2 47284  87.9008   1.3848 0001723  76.7933 283.3388 13.12441617257572
ONEWEB-0139             
1 47285U 20100AD  26114.19208248  .00000010  00000+0 -66027-5 0  9994
2 47285  87.9002   1.3800 0001768  77.9816 282.1511 13.12443602257646
ONEWEB-0140             
1 47286U 20100AE  26114.22243269  .00000285  00000+0  75712-3 0  9993
2 47286  87.9005   1.3632 0001968  83.9743 276.1610 13.12442558257610
ONEWEB-0141             
1 47287U 20100AF  26114.19179897  .00000078  00000+0  18071-3 0  9990
2 47287  87.9001   1.3757 0001487  87.0081 273.1218 13.12444096257598
ONEWEB-0142             
1 47288U 20100AG  26114.18021040 -.00000310  00000+0 -89821-3 0  9998
2 47288  87.8998   1.4014 0001365  74.7781 285.3498 13.12443516257585
ONEWEB-0143             
1 47289U 20100AH  26114.19024231 -.00000072  00000+0 -23674-3 0  9994
2 47289  87.9001   1.3962 0001746  80.0452 280.0874 13.12444267257563
ONEWEB-0144             
1 47290U 20100AJ  26114.23766061 -.00000185  00000+0 -54864-3 0  9995
2 47290  87.9005   1.3579 0001571  70.0001 290.1296 13.12441644257496
ONEWEB-0145             
1 47291U 20100AK  26114.13264700  .00000462  00000+0  12497-2 0  9999
2 47291  87.8992   1.4132 0001695  77.3714 282.7604 13.12443183257675
ONEWEB-0146             
1 47292U 20100AL  26114.20549396  .00000357  00000+0  95632-3 0  9991
2 47292  87.9003   1.3866 0002037  85.2328 274.9033 13.12443374257595
ONEWEB-0147             
1 47293U 20100AM  26114.17159608 -.00000459  00000+0 -13114-2 0  9990
2 47293  87.9008   1.3728 0001860  76.0172 284.1164 13.12442935257484
ONEWEB-0115             
1 48042U 21025A   26114.08962499 -.00000278  00000+0 -79616-3 0  9999
2 48042  87.8979 330.9970 0001805  84.7316 275.4019 13.13469619246498
ONEWEB-0152             
1 48043U 21025B   26114.10316948 -.00000058  00000+0 -19450-3 0  9991
2 48043  87.8964 330.9933 0001855  85.8381 274.2960 13.13470057246457
ONEWEB-0153             
1 48044U 21025C   26114.15733647 -.00000254  00000+0 -73153-3 0  9994
2 48044  87.8971 330.9862 0001668  83.9649 276.1670 13.13469804246452
ONEWEB-0154             
1 48045U 21025D   26114.15393819 -.00000194  00000+0 -56558-3 0  9991
2 48045  87.8970 330.9848 0001774  82.5071 277.6259 13.13468458246417
ONEWEB-0116             
1 48046U 21025E   26114.11671319  .00000253  00000+0  65680-3 0  9992
2 48046  87.8979 330.9846 0001861  85.3315 274.8027 13.13470230246552
